[{"OBJECT_NAME":"STARLINK-4745","OBJECT_ID":"2022-114AC","EPOCH":"2026-03-09T21:24:09.584640","MEAN_MOTION":15.08846382,"ECCENTRICITY":0.00011581,"INCLINATION":53.2173,"RA_OF_ASC_NODE":293.109,"ARG_OF_PERICENTER":85.7889,"MEAN_ANOMALY":274.3236,"EPHEMERIS_TYPE":0,"CLASSIFICATION_TYPE":"U","NORAD_CAT_ID":53844,"ELEMENT_SET_NO":999,"REV_AT_EPOCH":19300,"BSTAR":-0.00012344278,"MEAN_MOTION_DOT":-2.252e-5,"MEAN_MOTION_DDOT":0},{"OBJECT_NAME":"OBJECT R","OBJECT_ID":"2021-022R","EPOCH":"2026-03-09T22:54:37.456416","MEAN_MOTION":15.08912229,"ECCENTRICITY":0.00182027,"INCLINATION":97.3728,"RA_OF_ASC_NODE":308.5333,"ARG_OF_PERICENTER":149.1845,"MEAN_ANOMALY":211.0456,"EPHEMERIS_TYPE":0,"CLASSIFICATION_TYPE":"U","NORAD_CAT_ID":47947,"ELEMENT_SET_NO":999,"REV_AT_EPOCH":27304,"BSTAR":2.1057411e-5,"MEAN_MOTION_DOT":2.72e-6,"MEAN_MOTION_DDOT":0}]
